[99942apophis]
absolute_magnitude             = 19.7
albedo                         = 0.23
coord_func                     = comet_orbit
minor_planet_number            = 99942
name                           = Apophis
iau_designation                = 2004 MN4
orbit_ArgOfPericenter          = 126.60587
orbit_AscendingNode            = 203.95751
orbit_Eccentricity             = 0.1914167
orbit_Epoch                    = 2460000.5
orbit_Inclination              = 3.33927
orbit_MeanAnomaly              = 280.45871
orbit_MeanMotion               = 1.11199237
orbit_SemiMajorAxis            = 0.9227163
orbit_visualization_period     = 323.6957174709954
radius                         = 1
slope_parameter                = 0.15
spec_b                         = Sq
discovery                      = 2004-06-19
discoverer                     = R.A. Tucker, D.J. Tholen, F. Bernardi
type                           = asteroid

[TeslaRoadster]
absolute_magnitude             = 25.256
albedo                         = 1
color                          = 1.0,0.0,0.0
coord_func                     = comet_orbit
name                           = Tesla Roadster (Starman)
orbit_ArgOfPericenter          = 177.3364041029062
orbit_AscendingNode            = 317.3183428774018
orbit_Eccentricity             = 0.2576842367146164
orbit_Epoch                    = 2458167.500000000
orbit_Inclination              = 1.085063111224933
orbit_PericenterDistance       = 0.9860582813419811
orbit_TimeAtPericenter         = 2458153.5979641485
type                           = artificial
